YAM-7                   
1 60504U 24149AN  26068.71799904  .00009009  00000+0  30984-3 0  9997
2 60504  97.3828 149.4631 0001973 296.5121  63.5918 15.30304554 86835
STARLINK-32915          
1 63152U 25043W   26067.90914219  .00036119  00000+0  13153-2 0  9991
2 63152  42.9991  27.4604 0001231 246.1784 113.8939 15.27588605 57165
